NORAD_CAT_ID,OBJECT_NAME,OBJECT_TYPE,EPOCH,MEAN_MOTION,ECCENTRICITY,INCLINATION,RA_OF_ASC_NODE,ARG_OF_PERICENTER,MEAN_ANOMALY,BSTAR,MEAN_MOTION_DOT,MEAN_MOTION_DDOT,TLE_LINE0,TLE_LINE1,TLE_LINE2,SEMIMAJOR_AXIS,PERIOD,APOGEE,PERIGEE,DECAYED
52575.0,STARLINK-3920,PAYLOAD,2023-08-04 23:43:29,15.088493,0.0001153,53.2168,53.514,82.2497,277.8626,0.00012819,1.753e-05,0.0,0 STARLINK-3920,1 52575U 22051AR  23216.98853826  .00001753  00000-0  12819-3 0  9997,2 52575  53.2168  53.5140 0001153  82.2497 277.8626 15.08849300 68584,6917.852,95.437,540.515,538.919,0.0
52575.0,STARLINK-3920,PAYLOAD,2023-08-05 18:48:07,15.0884812,0.0001332,53.217,49.9466,79.2622,280.852,0.00024568,3.625e-05,0.0,0 STARLINK-3920,1 52575U 22051AR  23217.78341929  .00003625  00000-0  24568-3 0  9996,2 52575  53.2170  49.9466 0001332  79.2622 280.8520 15.08848120 68702,6917.856,95.437,540.642,538.799,0.0
52575.0,STARLINK-3920,PAYLOAD,2023-08-06 01:09:39,15.08861282,0.0001247,53.2166,48.7558,75.3006,284.8124,0.00043757,6.687e-05,0.0,0 STARLINK-3920,1 52575U 22051AR  23218.04837223  .00006687  00000-0  43757-3 0  9995,2 52575  53.2166  48.7558 0001247  75.3006 284.8124 15.08861282 68746,6917.815,95.436,540.543,538.818,0.0
52575.0,STARLINK-3920,PAYLOAD,2023-08-06 05:55:49,15.08828609,7.25e-05,53.2171,47.8648,68.875,291.2319,-0.00024726,-4.219e-05,0.0,0 STARLINK-3920,1 52575U 22051AR  23218.24710179 -.00004219  00000-0 -24726-3 0  9993,2 52575  53.2171  47.8648 0000725  68.8750 291.2319 15.08828609 68772,6917.915,95.438,540.282,539.279,0.0
52575.0,STARLINK-3920,PAYLOAD,2023-08-06 18:38:54,15.0883563,0.0001107,53.2168,45.4857,70.6512,289.46,-6.0269e-05,-1.247e-05,0.0,0 STARLINK-3920,1 52575U 22051AR  23218.77702322 -.00001247  00000-0 -60269-4 0  9993,2 52575  53.2168  45.4857 0001107  70.6512 289.4600 15.08835630 68859,6917.894,95.438,540.525,538.993,0.0
52575.0,STARLINK-3920,PAYLOAD,2023-08-07 18:29:42,15.08848428,0.0001082,53.2162,41.0246,67.0401,293.0705,0.00083921,0.00013096,0.0,0 STARLINK-3920,1 52575U 22051AR  23219.77062539  .00013096  00000-0  83921-3 0  9995,2 52575  53.2162  41.0246 0001082  67.0401 293.0705 15.08848428 69000,6917.855,95.437,540.468,538.971,0.0
52575.0,STARLINK-3920,PAYLOAD,2023-08-08 05:37:23,15.08850312,0.0001082,53.2164,38.9432,64.8336,295.2769,0.00063893,9.898e-05,0.0,0 STARLINK-3920,1 52575U 22051AR  23220.23430450  .00009898  00000-0  63893-3 0  9990,2 52575  53.2164  38.9432 0001082  64.8336 295.2769 15.08850312 69072,6917.849,95.437,540.462,538.965,0.0
52575.0,STARLINK-3920,PAYLOAD,2023-08-08 18:20:29,15.08847968,0.0001243,53.2174,36.5656,75.5197,284.5933,0.00036308,5.496e-05,0.0,0 STARLINK-3920,1 52575U 22051AR  23220.76422498  .00005496  00000-0  36308-3 0  9992,2 52575  53.2174  36.5656 0001243  75.5197 284.5933 15.08847968 69154,6917.856,95.437,540.581,538.861,0.0
52575.0,STARLINK-3920,PAYLOAD,2023-08-09 18:11:16,15.08841927,0.000101,53.2169,32.1042,80.158,279.9526,0.00013221,1.817e-05,0.0,0 STARLINK-3920,1 52575U 22051AR  23221.75782700  .00001817  00000-0  13221-3 0  9999,2 52575  53.2169  32.1042 0001010  80.1580 279.9526 15.08841927 69301,6917.874,95.437,540.438,539.041,0.0
52575.0,STARLINK-3920,PAYLOAD,2023-08-10 22:48:12,15.0884924,0.0001124,53.2164,26.7513,85.964,274.1481,0.00038,5.767e-05,0.0,0 STARLINK-3920,1 52575U 22051AR  23222.95014528  .00005767  00000-0  38000-3 0  9998,2 52575  53.2164  26.7513 0001124  85.9640 274.1481 15.08849240 69486,6917.852,95.437,540.495,538.94,0.0
52575.0,STARLINK-3920,PAYLOAD,2023-08-11 03:34:22,15.08834387,0.000183,53.2164,25.8573,89.0141,271.1061,5.2874e-05,5.53e-06,0.0,0 STARLINK-3920,1 52575U 22051AR  23223.14887304  .00000553  00000-0  52874-4 0  9994,2 52575  53.2164  25.8573 0001830  89.0141 271.1061 15.08834387 69518,6917.898,95.438,541.029,538.497,0.0
52575.0,STARLINK-3920,PAYLOAD,2023-08-11 17:52:50,15.08848513,9.83e-05,53.2177,23.183,86.1267,273.9838,0.00029641,4.434e-05,0.0,0 STARLINK-3920,1 52575U 22051AR  23223.74502651  .00004434  00000-0  29641-3 0  9996,2 52575  53.2177  23.1830 0000983  86.1267 273.9838 15.08848513 69602,6917.854,95.437,540.399,539.039,0.0
52575.0,STARLINK-3920,PAYLOAD,2023-08-12 11:22:04,15.08839754,9.09e-05,53.2162,19.9117,89.3392,270.7704,7.549e-05,9.14e-06,0.0,0 STARLINK-3920,1 52575U 22051AR  23224.47366814  .00000914  00000-0  75490-4 0  9999,2 52575  53.2162  19.9117 0000909  89.3392 270.7704 15.08839754 69715,6917.881,95.438,540.375,539.117,0.0
52575.0,STARLINK-3920,PAYLOAD,2023-08-12 19:19:00,15.08848883,0.0001001,53.217,18.4252,98.8794,261.2311,0.00027811,4.142e-05,0.0,0 STARLINK-3920,1 52575U 22051AR  23224.80486610  .00004142  00000-0  27811-3 0  9993,2 52575  53.2170  18.4252 0001001  98.8794 261.2311 15.08848883 69760,6917.853,95.437,540.411,539.026,0.0
52575.0,STARLINK-3920,PAYLOAD,2023-08-13 03:15:56,15.08837562,0.0001116,53.2169,16.938,91.2877,268.8243,1.0764e-05,-1.16e-06,0.0,0 STARLINK-3920,1 52575U 22051AR  23225.13606964 -.00000116  00000-0  10764-4 0  9994,2 52575  53.2169  16.9380 0001116  91.2877 268.8243 15.08837562 69814,6917.888,95.438,540.525,538.981,0.0
52575.0,STARLINK-3920,PAYLOAD,2023-08-14 03:06:43,15.08830841,9.34e-05,53.2171,12.4774,92.5188,267.5912,-6.8521e-05,-1.378e-05,0.0,0 STARLINK-3920,1 52575U 22051AR  23226.12967530 -.00001378  00000-0 -68521-4 0  9999,2 52575  53.2171  12.4774 0000934  92.5188 267.5912 15.08830841 69969,6917.908,95.438,540.42,539.127,0.0
52575.0,STARLINK-3920,PAYLOAD,2023-08-14 22:11:21,15.08850072,0.0001011,53.2169,8.9079,88.0064,272.1043,0.00035333,5.341e-05,0.0,0 STARLINK-3920,1 52575U 22051AR  23226.92455073  .00005341  00000-0  35333-3 0  9997,2 52575  53.2169   8.9079 0001011  88.0064 272.1043 15.08850072 70084,6917.85,95.437,540.414,539.015,0.0
52575.0,STARLINK-3920,PAYLOAD,2023-08-15 02:57:31,15.08839638,0.0001227,53.216,8.0162,90.3865,269.7268,0.00023247,3.414e-05,0.0,0 STARLINK-3920,1 52575U 22051AR  23227.12327553  .00003414  00000-0  23247-3 0  9991,2 52575  53.2160   8.0162 0001227  90.3865 269.7268 15.08839638 70113,6917.881,95.438,540.595,538.898,0.0
52575.0,STARLINK-3920,PAYLOAD,2023-08-15 20:26:44,15.08858565,9.07e-05,53.2177,4.7469,76.8789,283.2305,0.00045584,6.978e-05,0.0,0 STARLINK-3920,1 52575U 22051AR  23227.85190710  .00006978  00000-0  45584-3 0  9990,2 52575  53.2177   4.7469 0000907  76.8789 283.2305 15.08858565 70227,6917.824,95.436,540.316,539.061,0.0
52575.0,STARLINK-3920,PAYLOAD,2023-08-16 09:09:50,15.08842402,0.0001339,53.2146,2.3669,88.4895,271.625,0.00012071,1.634e-05,0.0,0 STARLINK-3920,1 52575U 22051AR  23228.38183423  .00001634  00000-0  12071-3 0  9991,2 52575  53.2146   2.3669 0001339  88.4895 271.6250 15.08842402 70308,6917.873,95.437,540.664,538.812,0.0
52575.0,STARLINK-3920,PAYLOAD,2023-08-17 20:08:21,15.08822984,7.13e-05,53.2182,355.8278,70.1838,289.9231,0.0003345,5.037e-05,0.0,0 STARLINK-3920,1 52575U 22051AR  23229.83913711  .00005037  00000-0  33450-3 0  9998,2 52575  53.2182 355.8278 0000713  70.1838 289.9231 15.08822984 70528,6917.932,95.439,540.291,539.304,0.0
52575.0,STARLINK-3920,PAYLOAD,2023-08-18 08:51:26,15.08845695,0.0001368,53.218,353.4473,80.74,279.3746,0.00082478,0.00012865,0.0,0 STARLINK-3920,1 52575U 22051AR  23230.36905749  .00012865  00000-0  82478-3 0  9991,2 52575  53.2180 353.4473 0001368  80.7400 279.3746 15.08845695 70603,6917.863,95.437,540.674,538.782,0.0
52575.0,STARLINK-3920,PAYLOAD,2023-08-18 18:23:44,15.08873226,0.0001014,53.2178,351.6634,88.2223,271.8885,0.0013529,0.00021329,0.0,0 STARLINK-3920,1 52575U 22051AR  23230.76648902  .00021329  00000-0  13529-2 0  9995,2 52575  53.2178 351.6634 0001014  88.2223 271.8885 15.08873226 70661,6917.779,95.435,540.345,538.942,0.0
52575.0,STARLINK-3920,PAYLOAD,2023-08-19 11:52:58,15.08866984,0.0001065,53.2179,348.3926,84.3541,275.7572,0.00054681,8.432e-05,0.0,0 STARLINK-3920,1 52575U 22051AR  23231.49512136  .00008432  00000-0  54681-3 0  9990,2 52575  53.2179 348.3926 0001065  84.3541 275.7572 15.08866984 70776,6917.798,95.436,540.4,538.926,0.0
52575.0,STARLINK-3920,PAYLOAD,2023-08-20 11:43:45,15.08854043,0.0001225,53.217,343.9327,91.4508,268.6625,0.0013574,0.00021389,0.0,0 STARLINK-3920,1 52575U 22051AR  23232.48871978  .00021389  00000-0  13574-2 0  9993,2 52575  53.2170 343.9327 0001225  91.4508 268.6625 15.08854043 70923,6917.837,95.437,540.55,538.855,0.0
52575.0,STARLINK-3920,PAYLOAD,2023-08-20 16:29:54,15.0884862,0.0001066,53.2172,343.0409,105.2423,254.8687,0.00068324,0.00010605,0.0,0 STARLINK-3920,1 52575U 22051AR  23232.68743785  .00010605  00000-0  68324-3 0  9992,2 52575  53.2172 343.0409 0001066 105.2423 254.8687 15.08848620 70952,6917.854,95.437,540.456,538.982,0.0
52575.0,STARLINK-3920,PAYLOAD,2023-08-21 00:26:50,15.0884605,0.0001222,53.2186,341.5502,86.8993,273.2139,0.00019439,2.808e-05,0.0,0 STARLINK-3920,1 52575U 22051AR  23233.01863784  .00002808  00000-0  19439-3 0  9991,2 52575  53.2186 341.5502 0001222  86.8993 273.2139 15.08846050 71003,6917.862,95.437,540.572,538.882,0.0
52575.0,STARLINK-3920,PAYLOAD,2023-08-21 11:34:32,15.08841171,0.0001221,53.2171,339.4729,86.6154,273.4977,6.1876e-06,-1.89e-06,0.0,0 STARLINK-3920,1 52575U 22051AR  23233.48232129 -.00000189  00000-0  61876-5 0  9990,2 52575  53.2171 339.4729 0001221  86.6154 273.4977 15.08841171 71078,6917.877,95.437,540.586,538.897,0.0
52575.0,STARLINK-3920,PAYLOAD,2023-08-22 11:25:19,15.08837444,0.0001186,53.2178,335.012,82.5241,277.5886,-9.6472e-06,-4.41e-06,0.0,0 STARLINK-3920,1 52575U 22051AR  23234.47592461 -.00000441  00000-0 -96472-5 0  9990,2 52575  53.2178 335.0120 0001186  82.5241 277.5886 15.08837444 71223,6917.888,95.438,540.574,538.933,0.0
52575.0,STARLINK-3920,PAYLOAD,2023-08-23 12:51:29,15.08847664,0.0001297,53.2188,330.2536,72.5409,287.5725,0.00020378,2.957e-05,0.0,0 STARLINK-3920,1 52575U 22051AR  23235.53576107  .00002957  00000-0  20378-3 0  9999,2 52575  53.2188 330.2536 0001297  72.5409 287.5725 15.08847664 71385,6917.857,95.437,540.619,538.825,0.0
